{
  "type": "FeatureCollection",
  "features": [
    {
      "type": "Feature",
      "properties": {
        "norad_id": 22490,
        "name": "SCD 1",
        "group": "resource",
        "lat": 21.788383746003376,
        "lon": -115.11463109184888,
        "alt_km": 719.5741480742745,
        "timestamp": "2025-12-27T19:21:58.431035+00:00",
        "meta_object_name": "SCD 1",
        "meta_object_id": "1993-009B",
        "meta_epoch": "2025-12-27T12:33:21.441312",
        "meta_mean_motion": 14.46009028,
        "meta_eccentricity": 0.0042153,
        "meta_inclination": 24.9674,
        "meta_ra_of_asc_node": 187.4237,
        "meta_arg_of_pericenter": 121.1278,
        "meta_mean_anomaly": 260.7849,
        "meta_ephemeris_type": 0,
        "meta_classification_type": "U",
        "meta_norad_cat_id": 22490,
        "meta_element_set_no": 999,
        "meta_rev_at_epoch": 73624,
        "meta_bstar": 0.00010296,
        "meta_mean_motion_dot": 5.62e-06,
        "meta_mean_motion_ddot": 0,
        "tle_line1": "1 22490U 93009B   25361.52316483  .00000562  00000+0  10296-3 0  9990",
        "tle_line2": "2 22490  24.9674 187.4237 0042153 121.1278 260.7849 14.46009028736242"
      },
      "geometry": {
        "type": "Point",
        "coordinates": [
          -115.11463109184888,
          21.788383746003376
        ]
      }
    },
    {
      "type": "Feature",
      "properties": {
        "norad_id": 25397,
        "name": "TECHSAT 1B (GO-32)",
        "group": "resource",
        "lat": -13.21788009738243,
        "lon": -12.50056594187642,
        "alt_km": 814.2329638038564,
        "timestamp": "2025-12-27T19:21:58.431071+00:00",
        "meta_object_name": "TECHSAT 1B (GO-32)",
        "meta_object_id": "1998-043D",
        "meta_epoch": "2025-12-27T10:59:58.072992",
        "meta_mean_motion": 14.24381199,
        "meta_eccentricity": 0.0001582,
        "meta_inclination": 98.9935,
        "meta_ra_of_asc_node": 345.011,
        "meta_arg_of_pericenter": 32.8543,
        "meta_mean_anomaly": 327.2733,
        "meta_ephemeris_type": 0,
        "meta_classification_type": "U",
        "meta_norad_cat_id": 25397,
        "meta_element_set_no": 999,
        "meta_rev_at_epoch": 42688,
        "meta_bstar": 7.1759e-05,
        "meta_mean_motion_dot": 1.19e-06,
        "meta_mean_motion_ddot": 0,
        "tle_line1": "1 25397U 98043D   25361.45831103  .00000119  00000+0  71759-4 0  9995",
        "tle_line2": "2 25397  98.9935 345.0110 0001582  32.8543 327.2733 14.24381199426883"
      },
      "geometry": {
        "type": "Point",
        "coordinates": [
          -12.50056594187642,
          -13.21788009738243
        ]
      }
    },
    {
      "type": "Feature",
      "properties": {
        "norad_id": 25504,
        "name": "SCD 2",
        "group": "resource",
        "lat": 21.987944317630884,
        "lon": 109.06243627526071,
        "alt_km": 727.4827150410674,
        "timestamp": "2025-12-27T19:21:58.431084+00:00",
        "meta_object_name": "SCD 2",
        "meta_object_id": "1998-060A",
        "meta_epoch": "2025-12-27T10:53:51.965088",
        "meta_mean_motion": 14.45431477,
        "meta_eccentricity": 0.001706,
        "meta_inclination": 24.9959,
        "meta_ra_of_asc_node": 51.1667,
        "meta_arg_of_pericenter": 108.1391,
        "meta_mean_anomaly": 274.659,
        "meta_ephemeris_type": 0,
        "meta_classification_type": "U",
        "meta_norad_cat_id": 25504,
        "meta_element_set_no": 999,
        "meta_rev_at_epoch": 43545,
        "meta_bstar": 8.8142e-05,
        "meta_mean_motion_dot": 4.98e-06,
        "meta_mean_motion_ddot": 0,
        "tle_line1": "1 25504U 98060A   25361.45407367  .00000498  00000+0  88142-4 0  9999",
        "tle_line2": "2 25504  24.9959  51.1667 0017060 108.1391 274.6590 14.45431477435453"
      },
      "geometry": {
        "type": "Point",
        "coordinates": [
          109.06243627526071,
          21.987944317630884
        ]
      }
    },
    {
      "type": "Feature",
      "properties": {
        "norad_id": 25757,
        "name": "DLR-TUBSAT",
        "group": "resource",
        "lat": -76.47125883711682,
        "lon": 26.069825931104155,
        "alt_km": 732.2064687885304,
        "timestamp": "2025-12-27T19:21:58.431095+00:00",
        "meta_object_name": "DLR-TUBSAT",
        "meta_object_id": "1999-029B",
        "meta_epoch": "2025-12-17T13:22:10.787520",
        "meta_mean_motion": 14.52359578,
        "meta_eccentricity": 0.00141996,
        "meta_inclination": 98.6566,
        "meta_ra_of_asc_node": 336.2196,
        "meta_arg_of_pericenter": 177.8976,
        "meta_mean_anomaly": 182.2281,
        "meta_ephemeris_type": 0,
        "meta_classification_type": "U",
        "meta_norad_cat_id": 25757,
        "meta_element_set_no": 999,
        "meta_rev_at_epoch": 40688,
        "meta_bstar": 3.7650132e-05,
        "meta_mean_motion_dot": 1.05e-06,
        "meta_mean_motion_ddot": 0,
        "tle_line1": "1 25757U 99029B   25351.55706930  .00000105  00000+0  37650-4 0  9996",
        "tle_line2": "2 25757  98.6566 336.2196 0014199 177.8976 182.2281 14.52359578406886"
      },
      "geometry": {
        "type": "Point",
        "coordinates": [
          26.069825931104155,
          -76.47125883711682
        ]
      }
    },
    {
      "type": "Feature",
      "properties": {
        "norad_id": 25994,
        "name": "TERRA",
        "group": "resource",
        "lat": 80.98515363163551,
        "lon": -9.118135559980756,
        "alt_km": 680.5771227073983,
        "timestamp": "2025-12-27T19:21:58.431106+00:00",
        "meta_object_name": "TERRA",
        "meta_object_id": "1999-068A",
        "meta_epoch": "2025-12-27T11:19:15.680928",
        "meta_mean_motion": 14.60918438,
        "meta_eccentricity": 0.0003355,
        "meta_inclination": 97.9729,
        "meta_ra_of_asc_node": 52.6141,
        "meta_arg_of_pericenter": 64.9824,
        "meta_mean_anomaly": 58.8442,
        "meta_ephemeris_type": 0,
        "meta_classification_type": "U",
        "meta_norad_cat_id": 25994,
        "meta_element_set_no": 999,
        "meta_rev_at_epoch": 38453,
        "meta_bstar": 0.00012185,
        "meta_mean_motion_dot": 5.52e-06,
        "meta_mean_motion_ddot": 0,
        "tle_line1": "1 25994U 99068A   25361.47170927  .00000552  00000+0  12185-3 0  9996",
        "tle_line2": "2 25994  97.9729  52.6141 0003355  64.9824  58.8442 14.60918438384530"
      },
      "geometry": {
        "type": "Point",
        "coordinates": [
          -9.118135559980756,
          80.98515363163551
        ]
      }
    },
    {
      "type": "Feature",
      "properties": {
        "norad_id": 27004,
        "name": "MAROC-TUBSAT",
        "group": "resource",
        "lat": -25.53214699690194,
        "lon": -14.215611937619883,
        "alt_km": 990.3241277727993,
        "timestamp": "2025-12-27T19:21:58.431116+00:00",
        "meta_object_name": "MAROC-TUBSAT",
        "meta_object_id": "2001-056D",
        "meta_epoch": "2025-12-27T09:54:20.785248",
        "meta_mean_motion": 13.70253612,
        "meta_eccentricity": 0.0019337,
        "meta_inclination": 99.7918,
        "meta_ra_of_asc_node": 170.115,
        "meta_arg_of_pericenter": 221.2807,
        "meta_mean_anomaly": 201.1305,
        "meta_ephemeris_type": 0,
        "meta_classification_type": "U",
        "meta_norad_cat_id": 27004,
        "meta_element_set_no": 999,
        "meta_rev_at_epoch": 20266,
        "meta_bstar": 3.2347e-05,
        "meta_mean_motion_dot": -1.8e-07,
        "meta_mean_motion_ddot": 0,
        "tle_line1": "1 27004U 01056D   25361.41274057 -.00000018  00000+0  32347-4 0  9994",
        "tle_line2": "2 27004  99.7918 170.1150 0019337 221.2807 201.1305 13.70253612202666"
      },
      "geometry": {
        "type": "Point",
        "coordinates": [
          -14.215611937619883,
          -25.53214699690194
        ]
      }
    },
    {
      "type": "Feature",
      "properties": {
        "norad_id": 27424,
        "name": "AQUA",
        "group": "resource",
        "lat": 9.628491068827675,
        "lon": -38.50498586741121,
        "alt_km": 689.0563105589545,
        "timestamp": "2025-12-27T19:21:58.431127+00:00",
        "meta_object_name": "AQUA",
        "meta_object_id": "2002-022A",
        "meta_epoch": "2025-12-26T23:47:53.598912",
        "meta_mean_motion": 14.61764548,
        "meta_eccentricity": 0.00018494,
        "meta_inclination": 98.4058,
        "meta_ra_of_asc_node": 322.1038,
        "meta_arg_of_pericenter": 99.7002,
        "meta_mean_anomaly": 302.1298,
        "meta_ephemeris_type": 0,
        "meta_classification_type": "U",
        "meta_norad_cat_id": 27424,
        "meta_element_set_no": 999,
        "meta_rev_at_epoch": 25811,
        "meta_bstar": 0.00027355086,
        "meta_mean_motion_dot": 1.315e-05,
        "meta_mean_motion_ddot": 0,
        "tle_line1": "1 27424U 02022A   25360.99159258  .00001315  00000+0  27355-3 0  9993",
        "tle_line2": "2 27424  98.4058 322.1038 0001849  99.7002 302.1298 14.61764548258111"
      },
      "geometry": {
        "type": "Point",
        "coordinates": [
          -38.50498586741121,
          9.628491068827675
        ]
      }
    }
  ]
}